OBJECT_NAME,OBJECT_ID,EPOCH,MEAN_MOTION,ECCENTRICITY,INCLINATION,RA_OF_ASC_NODE,ARG_OF_PERICENTER,MEAN_ANOMALY,EPHEMERIS_TYPE,CLASSIFICATION_TYPE,NORAD_CAT_ID,ELEMENT_SET_NO,REV_AT_EPOCH,BSTAR,MEAN_MOTION_DOT,MEAN_MOTION_DDOT
JILIN-1 09,2019-005B,2026-07-17T13:57:05.866560,15.20752075,.00020964,97.4746,293.2899,30.6131,329.5227,0,U,43943,999,41376,.10127192E-3,.216E-4,0
JILIN-1 10,2019-005E,2026-07-17T14:53:17.780352,15.26021847,.00087995,97.4799,297.4325,161.8495,198.3059,0,U,43946,999,41395,.11880054E-3,.2985E-4,0
EGYPTSAT-A (MISRSAT-A),2019-008A,2026-07-17T15:46:59.961216,14.72337647,.00017498,98.0179,263.0091,92.2308,267.9100,0,U,44047,999,39772,.32811051E-4,.158E-5,0
EMISAT,2019-018A,2026-07-17T15:22:00.476256,14.43650521,.00194318,98.4629,257.2704,124.1640,236.1396,0,U,44078,999,38445,.74569203E-4,.21E-5,0
JILIN-1 GAOFEN 3A,2019-032C,2026-07-17T10:50:48.903360,15.33218894,.0004817,44.9729,190.2899,121.7177,238.4178,0,U,44312,999,39248,.20342197E-3,.635E-4,0
WT 1B,2019-032G,2026-07-17T14:37:59.364768,15.27751929,.00082143,44.9732,254.8080,51.5021,308.6598,0,U,44316,999,39173,.18409491E-3,.4793E-4,0
PROX-1,2019-036A,2026-07-17T12:12:09.238464,14.91274149,.00061624,23.9944,271.5966,33.6915,326.3976,0,U,44339,999,37800,.52804113E-3,.5675E-4,0
NPSAT1,2019-036B,2026-07-17T15:13:50.712672,14.74833724,.00073679,24.0001,19.4117,194.8775,165.1504,0,U,44340,999,37699,.3557724E-3,.2687E-4,0
FORMOSAT 7-3,2019-036E,2026-07-17T15:33:51.728832,15.10005194,.00002306,23.9999,328.8561,330.0256,30.0234,0,U,44343,999,38785,.12453803E-3,.2422E-4,0
FORMOSAT 7-1,2019-036L,2026-07-17T07:36:51.486048,14.96616469,.00008631,23.9963,189.2464,150.1510,209.9040,0,U,44349,999,38917,.85096345E-4,.1296E-4,0
FORMOSAT 7-4,2019-036M,2026-07-17T06:33:22.995648,14.96613977,.00011325,23.9972,251.6550,164.6120,195.4415,0,U,44350,999,38858,.82482439E-4,.1266E-4,0
FORMOSAT 7-2,2019-036N,2026-07-17T11:53:37.100256,14.96614279,.00006127,23.9986,304.4702,149.3256,210.7280,0,U,44351,999,38813,.89426001E-4,.1347E-4,0
FORMOSAT 7-6,2019-036Q,2026-07-17T03:52:58.085760,14.96616923,.00013478,23.9969,127.5270,92.7890,267.2765,0,U,44353,999,38631,.91400887E-4,.137E-4,0
FORMOSAT 7-5,2019-036V,2026-07-17T00:08:30.613632,14.96596138,.0000344,23.9991,67.3319,147.1551,212.8971,0,U,44358,999,38682,.96570339E-4,.1429E-4,0
METEOR-M2 2,2019-038A,2026-07-17T14:10:56.282016,14.24373396,.0000578,98.9160,186.3279,357.6606,2.4569,0,U,44387,999,36562,.71681389E-4,.12E-5,0
COSMOS 2535,2019-039A,2026-07-17T14:10:46.334784,14.91998057,.0009884,97.5754,225.5898,108.5111,251.7183,0,U,44421,999,38117,.30447439E-4,.255E-5,0
GLOBAL-4,2019-054E,2026-07-17T15:14:46.755168,15.67273904,.00057551,45.0054,60.3271,212.0314,148.0235,0,U,44499,999,38513,.32809953E-3,.35957E-3,0
ZY-1 02D,2019-059A,2026-07-17T14:27:12.443040,14.35269238,.00030624,98.6708,260.1694,290.0575,70.0280,0,U,44528,999,35870,.61044702E-4,.13E-5,0
TAURUS-1 (JINNIUZUO 1),2019-059C,2026-07-17T11:40:37.673760,14.72382276,.00082041,98.6440,5.2040,207.9142,152.1624,0,U,44530,999,36310,.55629959E-3,.3469E-4,0
ZHUHAI-1 03B,2019-060C,2026-07-17T14:56:20.728896,15.55726871,.00086101,97.5562,358.0753,196.5785,163.5189,0,U,44536,999,38105,.27519733E-3,.18887E-3,0
ZHUHAI-1 03D,2019-060E,2026-07-17T16:23:19.239648,15.51439813,.0007637,97.5405,349.9926,182.0475,178.0747,0,U,44538,999,38080,.30438329E-3,.17884E-3,0
ZHUHAI-1 03E,2019-060F,2026-07-17T13:22:45.306912,15.41968365,.00044312,97.5651,349.5852,264.7774,95.2967,0,U,44539,999,38044,.22026405E-3,.9292E-4,0
ATLAS 5 CENTAUR DEB,2018-079BG,2026-07-17T03:14:51.349056,1.77414788,.47171761,13.6556,36.8382,303.9848,19.5774,0,U,44694,999,4709,0,-.14E-5,0
GAOFEN-7,2019-072A,2026-07-17T15:38:28.258944,15.20930071,.00170466,97.5700,259.3997,303.2615,56.6986,0,U,44703,999,37227,.91937476E-4,.1969E-4,0
JILIN-1 GAOFEN 2A,2019-075A,2026-07-17T14:45:53.719776,15.40050689,.00049351,97.4960,283.1322,345.1473,14.9627,0,U,44777,999,36956,.1814902E-3,.7168E-4,0
NINGXIA-1 1,2019-076A,2026-07-17T14:36:24.865632,14.02042252,.00114666,45.0068,43.9033,300.1797,59.7901,0,U,44779,999,34212,.26081407E-4,-.9E-6,0
NINGXIA-1 5,2019-076E,2026-07-17T14:54:02.729952,14.02089994,.00113709,45.0064,43.1801,290.9934,68.9684,0,U,44783,999,34204,.2345834E-4,-.94E-6,0
KL-ALPHA A,2019-077A,2026-07-17T14:16:16.235904,13.56045831,.0012188,88.9227,219.2390,30.5941,329.5921,0,U,44785,999,32985,-.47453733E-4,-.21E-6,0
CARTOSAT-3,2019-081A,2026-07-17T15:39:05.704704,15.19193125,.00128261,97.4285,260.0262,51.0154,309.2221,0,U,44804,999,36809,.85697018E-4,.1738E-4,0
JILIN-1 GAOFEN 2B,2019-086A,2026-07-17T14:37:58.607040,15.21014399,.00134573,97.4869,270.4143,206.8706,153.1834,0,U,44836,999,36511,.14099938E-3,.3064E-4,0
TIANQIN 1 (CAS-6),2019-093A,2026-07-17T14:23:14.500896,14.95570197,.0009896,97.7814,282.2218,319.6165,40.4321,0,U,44879,999,35659,.15621403E-3,.1676E-4,0
ETRSS-1,2019-093B,2026-07-17T14:20:08.759040,14.96020088,.00099652,97.7831,282.7060,319.7618,40.2865,0,U,44880,999,35660,.19427194E-3,.2123E-4,0
TIANYAN 01,2019-093C,2026-07-17T14:30:00.054720,14.86561127,.00133978,97.7520,270.0929,353.5149,6.5891,0,U,44881,999,35593,.2664094E-4,.183E-5,0
TIANYAN 02,2019-093D,2026-07-17T13:29:44.579328,15.05543165,.00123716,97.7933,293.6514,279.5489,80.4338,0,U,44882,999,35718,.20310155E-3,.2864E-4,0
CBERS 4A,2019-093E,2026-07-17T14:51:57.062016,14.81448603,.00016073,98.0180,266.0841,129.6659,230.4695,0,U,44883,999,35558,.1383824E-3,.103E-4,0
WEILAI 1R,2019-093F,2026-07-17T14:11:21.033024,15.00879500,.00153622,97.7891,288.5334,300.1726,59.7975,0,U,44884,999,35698,.21526543E-3,.2683E-4,0
FLORIPASAT-1,2019-093G,2026-07-17T08:43:10.879104,15.04149507,.00107004,97.7921,292.8218,333.0634,27.0035,0,U,44885,999,35718,.13979302E-3,.1877E-4,0
SHUNTIAN,2019-093H,2026-07-17T15:46:06.585888,14.95285488,.00106512,97.8009,286.6641,329.9012,30.1595,0,U,44886,999,35673,.15698876E-3,.1672E-4,0
2019-093L,2019-093L,2026-07-17T15:34:13.278720,14.94680705,.00104583,97.7555,276.5512,315.7958,44.2426,0,U,44889,999,35635,.17967823E-3,.1893E-4,0
ELEKTRO-L 3,2019-095A,2026-07-17T15:36:48.951648,1.00271487,.00013783,0.3336,82.3212,20.1142,143.2172,0,U,44903,999,2401,0,-.106E-5,0
GONETS-M 14,2019-096A,2026-07-17T15:18:00.888192,12.42871390,.0014427,82.5214,65.7603,85.5446,274.7281,0,U,44905,999,29746,.9433924E-3,.141E-5,0
GONETS-M 15,2019-096B,2026-07-17T16:00:12.665664,12.42883884,.00161439,82.5233,66.2084,107.1724,253.1125,0,U,44906,999,29743,.12750467E-2,.187E-5,0
GONETS-M 16,2019-096C,2026-07-17T14:41:26.006784,12.42893264,.00111102,82.5179,65.1802,146.2018,213.9772,0,U,44907,999,29741,.13473045E-2,.197E-5,0
RS-44 & BREEZE-KM R/B,2019-096E,2026-07-17T13:46:14.271456,12.79748887,.02184936,82.5243,319.5142,73.4624,289.0355,0,U,44909,999,30623,.28150373E-4,.2E-6,0
JILIN-1 KUANFU 01,2020-003A,2026-07-17T14:52:21.630720,15.10874470,.00094988,97.5020,271.9820,188.2293,171.8783,0,U,45016,999,35992,.95898055E-4,.1534E-4,0
XINGYUN-2 01,2020-028A,2026-07-17T14:05:39.348672,15.11921916,.00108275,97.4875,190.3891,96.9948,263.2515,0,U,45602,999,33943,.10050759E-3,.166E-4,0
XINGYUN-2 02,2020-028B,2026-07-17T13:42:45.655200,15.11640811,.00113274,97.5067,204.0313,158.0558,202.1160,0,U,45603,999,33942,.39264114E-4,.604E-5,0
HAIYANG-1D,2020-036A,2026-07-17T14:24:50.608800,14.34181523,.00039936,98.4563,139.6205,65.9155,294.2447,0,U,45721,999,31933,-.18560317E-4,-.95E-6,0
M2 PATHFINDER,2020-037E,2026-07-17T12:04:21.086112,15.04794835,.00126998,97.8140,30.0778,55.2846,304.9574,0,U,45727,999,33005,.4942323E-4,.634E-5,0
GAOFEN DUOMO (GFDM),2020-042A,2026-07-17T15:03:54.492192,14.76804359,.00105815,97.7727,257.4042,345.3502,14.7400,0,U,45856,999,32550,.48767877E-4,.293E-5,0
ZIYUAN 3-03 (ZY 3-03),2020-051A,2026-07-17T15:18:28.507680,15.21213151,.00029185,97.5363,265.6580,232.9960,127.1009,0,U,45939,999,33197,.12873127E-3,.2801E-4,0
NEMO-HD,2020-061F,2026-07-17T15:17:37.695840,15.45169119,.00010107,97.1897,260.2921,104.4905,255.6457,0,U,46277,999,32668,.12973068E-3,.6063E-4,0
3CAT-5A,2020-061W,2026-07-17T14:03:53.824032,15.46989882,.00022173,97.2383,261.4591,67.2601,292.8883,0,U,46292,999,32572,.18202785E-3,.9097E-4,0
3CAT-5B,2020-061X,2026-07-17T11:26:56.874624,15.48445036,.00023278,97.2373,262.3942,61.5878,298.5608,0,U,46293,999,32574,.19279138E-3,.10142E-3,0
NAPA-1,2020-061BA,2026-07-17T15:01:51.723840,15.72225472,.00025889,97.2434,273.8985,172.3775,187.7528,0,U,46320,999,32651,.40939053E-3,.54031E-3,0
JILIN-1 GAOFEN 3E,2020-065D,2026-07-17T13:58:31.806912,15.67462781,.00098065,97.2204,251.9742,64.4436,295.7838,0,U,46457,999,32451,.42033004E-3,.45637E-3,0
JILIN-1 GAOFEN 3F,2020-065E,2026-07-17T14:26:47.893344,15.64134907,.00111224,97.2159,249.1717,49.7935,310.4296,0,U,46458,999,32445,.3835312E-3,.36438E-3,0
JILIN-1 GAOFEN 3G,2020-065F,2026-07-17T14:16:57.565344,15.77340753,.00057784,97.2218,256.5379,262.7747,97.2863,0,U,46459,999,32472,.48058312E-3,.79418E-3,0
JILIN-1 GAOFEN 3H,2020-065G,2026-07-17T13:58:17.211360,15.72580232,.00067386,97.2167,252.6401,195.1958,164.9104,0,U,46460,999,32465,.44522845E-3,.59764E-3,0
HAIYANG-2C,2020-066A,2026-07-17T12:42:34.388352,13.83373031,.00075083,65.9974,139.7392,237.0737,122.9610,0,U,46469,999,29369,.7967811E-4,.6E-7,0
HJ-2A,2020-067A,2026-07-17T14:13:31.460736,14.76552665,.00043523,97.8823,276.2452,148.4617,211.6855,0,U,46478,999,31274,.14129976E-3,.936E-5,0
HJ-2B,2020-067B,2026-07-17T15:06:12.472128,14.76511773,.00020185,97.8887,277.3270,103.1955,256.9480,0,U,46479,999,31275,.32553248E-4,.177E-5,0
GONETS-M 17,2020-068A,2026-07-17T15:18:06.909408,12.42873644,.00217171,82.5018,328.5586,331.1200,28.8676,0,U,46486,999,26294,-.36297166E-3,-.41E-6,0
GONETS-M 18,2020-068B,2026-07-17T14:25:45.818400,12.42874464,.00189674,82.4973,327.6875,327.7398,32.2520,0,U,46487,999,26292,-.6253748E-3,-.77E-6,0
GONETS-M 19,2020-068C,2026-07-17T15:45:40.059360,12.42892591,.00129291,82.4997,328.1089,344.5792,15.4892,0,U,46488,999,26303,-.25487844E-3,-.25E-6,0
